{
    "links": {
        "self": "http://www.neowsapp.com/rest/v1/neo/3892273?api_key=iIulBulltgU6a56xZRHN4H3l9WmuAYTsLGpBGhQ2"
    },
    "id": "3892273",
    "neo_reference_id": "3892273",
    "name": "(2019 VY)",
    "designation": "2019 VY",
    "nasa_jpl_url": "http://ssd.jpl.nasa.gov/sbdb.cgi?sstr=3892273",
    "absolute_magnitude_h": 26.1,
    "estimated_diameter": {
        "kilometers": {
            "estimated_diameter_min": 0.0160160338,
            "estimated_diameter_max": 0.0358129403
        },
        "meters": {
            "estimated_diameter_min": 16.0160337979,
            "estimated_diameter_max": 35.8129403019
        },
        "miles": {
            "estimated_diameter_min": 0.0099518989,
            "estimated_diameter_max": 0.0222531225
        },
        "feet": {
            "estimated_diameter_min": 52.5460443254,
            "estimated_diameter_max": 117.4965270602
        }
    },
    "is_potentially_hazardous_asteroid": false,
    "close_approach_data": [
        {
            "close_approach_date": "1951-08-16",
            "close_approach_date_full": "1951-Aug-16 21:07",
            "epoch_date_close_approach": -579927180000,
            "relative_velocity": {
                "kilometers_per_second": "7.0879624558",
                "kilometers_per_hour": "25516.664841032",
                "miles_per_hour": "15855.0632174735"
            },
            "miss_distance": {
                "astronomical": "0.0504396687",
                "lunar": "19.6210311243",
                "kilometers": "7545667.001025669",
                "miles": "4688660.0583814722"
            },
            "orbiting_body": "Mars"
        },
        {
            "close_approach_date": "1959-11-22",
            "close_approach_date_full": "1959-Nov-22 23:06",
            "epoch_date_close_approach": -318992040000,
            "relative_velocity": {
                "kilometers_per_second": "24.3015737587",
                "kilometers_per_hour": "87485.6655311911",
                "miles_per_hour": "54360.1903407559"
            },
            "miss_distance": {
                "astronomical": "0.4852479157",
                "lunar": "188.7614392073",
                "kilometers": "72592054.610659559",
                "miles": "45106611.1137135542"
            },
            "orbiting_body": "Earth"
        },
        {
            "close_approach_date": "2019-10-25",
            "close_approach_date_full": "2019-Oct-25 18:03",
            "epoch_date_close_approach": 1572026580000,
            "relative_velocity": {
                "kilometers_per_second": "9.9650491445",
                "kilometers_per_hour": "35874.1769201854",
                "miles_per_hour": "22290.818431323"
            },
            "miss_distance": {
                "astronomical": "0.0146771453",
                "lunar": "5.7094095217",
                "kilometers": "2195669.674560511",
                "miles": "1364325.8711406118"
            },
            "orbiting_body": "Earth"
        },
        {
            "close_approach_date": "2055-11-17",
            "close_approach_date_full": "2055-Nov-17 00:28",
            "epoch_date_close_approach": 2710024080000,
            "relative_velocity": {
                "kilometers_per_second": "19.9830051572",
                "kilometers_per_hour": "71938.818565934",
                "miles_per_hour": "44699.9842361494"
            },
            "miss_distance": {
                "astronomical": "0.3404056913",
                "lunar": "132.4178139157",
                "kilometers": "50923966.354357531",
                "miles": "31642685.4017786878"
            },
            "orbiting_body": "Earth"
        }
    ],
    "orbital_data": {
        "orbit_id": "2",
        "orbit_determination_date": "2019-11-12 04:55:57",
        "first_observation_date": "2019-11-01",
        "last_observation_date": "2019-11-04",
        "data_arc_in_days": 3,
        "observations_used": 13,
        "orbit_uncertainty": "8",
        "minimum_orbit_intersection": ".0140831",
        "jupiter_tisserand_invariant": "4.594",
        "epoch_osculation": "2458789.5",
        "eccentricity": ".3917202278769862",
        "semi_major_axis": "1.433615693646874",
        "inclination": "3.19564265584467",
        "ascending_node_longitude": "16.88543963390482",
        "orbital_period": "626.9711346532312",
        "perihelion_distance": ".8720394274434967",
        "perihelion_argument": "319.2273032287124",
        "aphelion_distance": "1.995191959850251",
        "perihelion_time": "2458739.768041811213",
        "mean_anomaly": "28.55554898530615",
        "mean_motion": ".5741891135053784",
        "equinox": "J2000",
        "orbit_class": {
            "orbit_class_type": "APO",
            "orbit_class_description": "Near-Earth asteroid orbits which cross the Earth’s orbit similar to that of 1862 Apollo",
            "orbit_class_range": "a (semi-major axis) > 1.0 AU; q (perihelion) < 1.017 AU"
        }
    },
    "is_sentry_object": false
}